KUIPER-00035            
1 63748U 25088AA  25361.18030099  .00002834  00000+0  40081-3 0  9990
2 63748  51.9018  74.7502 0006209 189.8434 170.2408 14.79920094 36773
KUIPER-00037            
1 63749U 25088AB  25361.18218734  .00007632  00000+0  10195-2 0  9998
2 63749  51.8996  73.6893 0000377  51.1979 308.9017 14.80322344 37575
KUIPER-00038            
1 63750U 25088AC  25361.19809492  .00003761  00000+0  52206-3 0  9997
2 63750  51.9018  58.6373 0006775 192.3055 167.7742 14.79939851 36783
KUIPER-00039            
1 64500U 25134A   25361.23821416 -.00004938  00000+0 -61795-3 0  9990
2 64500  51.8987 193.4621 0011428  50.6017 309.5956 14.79939970 29349
KUIPER-00040            
1 64501U 25134B   25361.29331316  .00002991  00000+0  42074-3 0  9996
2 64501  51.8987 204.3727 0017086  30.8742 329.3222 14.79930492 29199
KUIPER-00041            
1 64502U 25134C   25361.02217849  .00003537  00000+0  49256-3 0  9998
2 64502  51.8980 206.9257 0012668  31.1491 329.0220 14.79928566 29133
KUIPER-00042            
1 64503U 25134D   25361.29602046  .00003064  00000+0  43054-3 0  9990
2 64503  51.8986 201.7198 0012749  42.2312 317.9630 14.79940152 29239
KUIPER-00043            
1 64504U 25134E   25360.29121727  .00002643  00000+0  37520-3 0  9995
2 64504  51.8998 198.6123 0003923  62.1211 298.0148 14.79985403 29194
