<?xml version="1.0" encoding="UTF-8"?>
<ndm xmlns:xsi="http://www.w3.org/2001/XMLSchema-instance" xsi:noNamespaceSchemaLocation="https://sanaregistry.org/r/ndmxml_unqualified/ndmxml-2.0.0-master-2.0.xsd">
<omm id="CCSDS_OMM_VERS" version="2.0">
<header><CREATION_DATE/><ORIGINATOR/></header><body><segment><metadata><OBJECT_NAME>KUIPER-00035</OBJECT_NAME><OBJECT_ID>2025-088AA</OBJECT_ID><CENTER_NAME>EARTH</CENTER_NAME><REF_FRAME>TEME</REF_FRAME><TIME_SYSTEM>UTC</TIME_SYSTEM><MEAN_ELEMENT_THEORY>SGP4</MEAN_ELEMENT_THEORY></metadata><data><meanElements><EPOCH>2025-12-27T04:19:38.005536</EPOCH><MEAN_MOTION>14.79920094</MEAN_MOTION><ECCENTRICITY>.00062093</ECCENTRICITY><INCLINATION>51.9018</INCLINATION><RA_OF_ASC_NODE>74.7502</RA_OF_ASC_NODE><ARG_OF_PERICENTER>189.8434</ARG_OF_PERICENTER><MEAN_ANOMALY>170.2408</MEAN_ANOMALY></meanElements><tleParameters><EPHEMERIS_TYPE>0</EPHEMERIS_TYPE><CLASSIFICATION_TYPE>U</CLASSIFICATION_TYPE><NORAD_CAT_ID>63748</NORAD_CAT_ID><ELEMENT_SET_NO>999</ELEMENT_SET_NO><REV_AT_EPOCH>3677</REV_AT_EPOCH><BSTAR>.40080982E-3</BSTAR><MEAN_MOTION_DOT>.2834E-4</MEAN_MOTION_DOT><MEAN_MOTION_DDOT>0</MEAN_MOTION_DDOT></tleParameters></data></segment></body></omm>
<omm id="CCSDS_OMM_VERS" version="2.0">
<header><CREATION_DATE/><ORIGINATOR/></header><body><segment><metadata><OBJECT_NAME>KUIPER-00037</OBJECT_NAME><OBJECT_ID>2025-088AB</OBJECT_ID><CENTER_NAME>EARTH</CENTER_NAME><REF_FRAME>TEME</REF_FRAME><TIME_SYSTEM>UTC</TIME_SYSTEM><MEAN_ELEMENT_THEORY>SGP4</MEAN_ELEMENT_THEORY></metadata><data><meanElements><EPOCH>2025-12-27T04:22:20.986176</EPOCH><MEAN_MOTION>14.80322344</MEAN_MOTION><ECCENTRICITY>.00003773</ECCENTRICITY><INCLINATION>51.8996</INCLINATION><RA_OF_ASC_NODE>73.6893</RA_OF_ASC_NODE><ARG_OF_PERICENTER>51.1979</ARG_OF_PERICENTER><MEAN_ANOMALY>308.9017</MEAN_ANOMALY></meanElements><tleParameters><EPHEMERIS_TYPE>0</EPHEMERIS_TYPE><CLASSIFICATION_TYPE>U</CLASSIFICATION_TYPE><NORAD_CAT_ID>63749</NORAD_CAT_ID><ELEMENT_SET_NO>999</ELEMENT_SET_NO><REV_AT_EPOCH>3757</REV_AT_EPOCH><BSTAR>.1019536E-2</BSTAR><MEAN_MOTION_DOT>.7632E-4</MEAN_MOTION_DOT><MEAN_MOTION_DDOT>0</MEAN_MOTION_DDOT></tleParameters></data></segment></body></omm>
<omm id="CCSDS_OMM_VERS" version="2.0">
<header><CREATION_DATE/><ORIGINATOR/></header><body><segment><metadata><OBJECT_NAME>KUIPER-00038</OBJECT_NAME><OBJECT_ID>2025-088AC</OBJECT_ID><CENTER_NAME>EARTH</CENTER_NAME><REF_FRAME>TEME</REF_FRAME><TIME_SYSTEM>UTC</TIME_SYSTEM><MEAN_ELEMENT_THEORY>SGP4</MEAN_ELEMENT_THEORY></metadata><data><meanElements><EPOCH>2025-12-27T04:45:15.401088</EPOCH><MEAN_MOTION>14.79939851</MEAN_MOTION><ECCENTRICITY>.00067759</ECCENTRICITY><INCLINATION>51.9018</INCLINATION><RA_OF_ASC_NODE>58.6373</RA_OF_ASC_NODE><ARG_OF_PERICENTER>192.3055</ARG_OF_PERICENTER><MEAN_ANOMALY>167.7742</MEAN_ANOMALY></meanElements><tleParameters><EPHEMERIS_TYPE>0</EPHEMERIS_TYPE><CLASSIFICATION_TYPE>U</CLASSIFICATION_TYPE><NORAD_CAT_ID>63750</NORAD_CAT_ID><ELEMENT_SET_NO>999</ELEMENT_SET_NO><REV_AT_EPOCH>3678</REV_AT_EPOCH><BSTAR>.52206189E-3</BSTAR><MEAN_MOTION_DOT>.3761E-4</MEAN_MOTION_DOT><MEAN_MOTION_DDOT>0</MEAN_MOTION_DDOT></tleParameters></data></segment></body></omm>
<omm id="CCSDS_OMM_VERS" version="2.0">
<header><CREATION_DATE/><ORIGINATOR/></header><body><segment><metadata><OBJECT_NAME>KUIPER-00039</OBJECT_NAME><OBJECT_ID>2025-134A</OBJECT_ID><CENTER_NAME>EARTH</CENTER_NAME><REF_FRAME>TEME</REF_FRAME><TIME_SYSTEM>UTC</TIME_SYSTEM><MEAN_ELEMENT_THEORY>SGP4</MEAN_ELEMENT_THEORY></metadata><data><meanElements><EPOCH>2025-12-27T05:43:01.703424</EPOCH><MEAN_MOTION>14.79939970</MEAN_MOTION><ECCENTRICITY>.00114285</ECCENTRICITY><INCLINATION>51.8987</INCLINATION><RA_OF_ASC_NODE>193.4621</RA_OF_ASC_NODE><ARG_OF_PERICENTER>50.6017</ARG_OF_PERICENTER><MEAN_ANOMALY>309.5956</MEAN_ANOMALY></meanElements><tleParameters><EPHEMERIS_TYPE>0</EPHEMERIS_TYPE><CLASSIFICATION_TYPE>U</CLASSIFICATION_TYPE><NORAD_CAT_ID>64500</NORAD_CAT_ID><ELEMENT_SET_NO>999</ELEMENT_SET_NO><REV_AT_EPOCH>2934</REV_AT_EPOCH><BSTAR>-.61794936E-3</BSTAR><MEAN_MOTION_DOT>-.4938E-4</MEAN_MOTION_DOT><MEAN_MOTION_DDOT>0</MEAN_MOTION_DDOT></tleParameters></data></segment></body></omm>
<omm id="CCSDS_OMM_VERS" version="2.0">
<header><CREATION_DATE/><ORIGINATOR/></header><body><segment><metadata><OBJECT_NAME>KUIPER-00040</OBJECT_NAME><OBJECT_ID>2025-134B</OBJECT_ID><CENTER_NAME>EARTH</CENTER_NAME><REF_FRAME>TEME</REF_FRAME><TIME_SYSTEM>UTC</TIME_SYSTEM><MEAN_ELEMENT_THEORY>SGP4</MEAN_ELEMENT_THEORY></metadata><data><meanElements><EPOCH>2025-12-27T07:02:22.257024</EPOCH><MEAN_MOTION>14.79930492</MEAN_MOTION><ECCENTRICITY>.00170864</ECCENTRICITY><INCLINATION>51.8987</INCLINATION><RA_OF_ASC_NODE>204.3727</RA_OF_ASC_NODE><ARG_OF_PERICENTER>30.8742</ARG_OF_PERICENTER><MEAN_ANOMALY>329.3222</MEAN_ANOMALY></meanElements><tleParameters><EPHEMERIS_TYPE>0</EPHEMERIS_TYPE><CLASSIFICATION_TYPE>U</CLASSIFICATION_TYPE><NORAD_CAT_ID>64501</NORAD_CAT_ID><ELEMENT_SET_NO>999</ELEMENT_SET_NO><REV_AT_EPOCH>2919</REV_AT_EPOCH><BSTAR>.42074238E-3</BSTAR><MEAN_MOTION_DOT>.2991E-4</MEAN_MOTION_DOT><MEAN_MOTION_DDOT>0</MEAN_MOTION_DDOT></tleParameters></data></segment></body></omm>
<omm id="CCSDS_OMM_VERS" version="2.0">
<header><CREATION_DATE/><ORIGINATOR/></header><body><segment><metadata><OBJECT_NAME>KUIPER-00041</OBJECT_NAME><OBJECT_ID>2025-134C</OBJECT_ID><CENTER_NAME>EARTH</CENTER_NAME><REF_FRAME>TEME</REF_FRAME><TIME_SYSTEM>UTC</TIME_SYSTEM><MEAN_ELEMENT_THEORY>SGP4</MEAN_ELEMENT_THEORY></metadata><data><meanElements><EPOCH>2025-12-27T00:31:56.221536</EPOCH><MEAN_MOTION>14.79928566</MEAN_MOTION><ECCENTRICITY>.00126689</ECCENTRICITY><INCLINATION>51.8980</INCLINATION><RA_OF_ASC_NODE>206.9257</RA_OF_ASC_NODE><ARG_OF_PERICENTER>31.1491</ARG_OF_PERICENTER><MEAN_ANOMALY>329.0220</MEAN_ANOMALY></meanElements><tleParameters><EPHEMERIS_TYPE>0</EPHEMERIS_TYPE><CLASSIFICATION_TYPE>U</CLASSIFICATION_TYPE><NORAD_CAT_ID>64502</NORAD_CAT_ID><ELEMENT_SET_NO>999</ELEMENT_SET_NO><REV_AT_EPOCH>2913</REV_AT_EPOCH><BSTAR>.49256418E-3</BSTAR><MEAN_MOTION_DOT>.3537E-4</MEAN_MOTION_DOT><MEAN_MOTION_DDOT>0</MEAN_MOTION_DDOT></tleParameters></data></segment></body></omm>
<omm id="CCSDS_OMM_VERS" version="2.0">
<header><CREATION_DATE/><ORIGINATOR/></header><body><segment><metadata><OBJECT_NAME>KUIPER-00042</OBJECT_NAME><OBJECT_ID>2025-134D</OBJECT_ID><CENTER_NAME>EARTH</CENTER_NAME><REF_FRAME>TEME</REF_FRAME><TIME_SYSTEM>UTC</TIME_SYSTEM><MEAN_ELEMENT_THEORY>SGP4</MEAN_ELEMENT_THEORY></metadata><data><meanElements><EPOCH>2025-12-27T07:06:16.167744</EPOCH><MEAN_MOTION>14.79940152</MEAN_MOTION><ECCENTRICITY>.00127494</ECCENTRICITY><INCLINATION>51.8986</INCLINATION><RA_OF_ASC_NODE>201.7198</RA_OF_ASC_NODE><ARG_OF_PERICENTER>42.2312</ARG_OF_PERICENTER><MEAN_ANOMALY>317.9630</MEAN_ANOMALY></meanElements><tleParameters><EPHEMERIS_TYPE>0</EPHEMERIS_TYPE><CLASSIFICATION_TYPE>U</CLASSIFICATION_TYPE><NORAD_CAT_ID>64503</NORAD_CAT_ID><ELEMENT_SET_NO>999</ELEMENT_SET_NO><REV_AT_EPOCH>2923</REV_AT_EPOCH><BSTAR>.43054179E-3</BSTAR><MEAN_MOTION_DOT>.3064E-4</MEAN_MOTION_DOT><MEAN_MOTION_DDOT>0</MEAN_MOTION_DDOT></tleParameters></data></segment></body></omm>
<omm id="CCSDS_OMM_VERS" version="2.0">
<header><CREATION_DATE/><ORIGINATOR/></header><body><segment><metadata><OBJECT_NAME>KUIPER-00043</OBJECT_NAME><OBJECT_ID>2025-134E</OBJECT_ID><CENTER_NAME>EARTH</CENTER_NAME><REF_FRAME>TEME</REF_FRAME><TIME_SYSTEM>UTC</TIME_SYSTEM><MEAN_ELEMENT_THEORY>SGP4</MEAN_ELEMENT_THEORY></metadata><data><meanElements><EPOCH>2025-12-26T06:59:21.172128</EPOCH><MEAN_MOTION>14.79985403</MEAN_MOTION><ECCENTRICITY>.0003923</ECCENTRICITY><INCLINATION>51.8998</INCLINATION><RA_OF_ASC_NODE>198.6123</RA_OF_ASC_NODE><ARG_OF_PERICENTER>62.1211</ARG_OF_PERICENTER><MEAN_ANOMALY>298.0148</MEAN_ANOMALY></meanElements><tleParameters><EPHEMERIS_TYPE>0</EPHEMERIS_TYPE><CLASSIFICATION_TYPE>U</CLASSIFICATION_TYPE><NORAD_CAT_ID>64504</NORAD_CAT_ID><ELEMENT_SET_NO>999</ELEMENT_SET_NO><REV_AT_EPOCH>2919</REV_AT_EPOCH><BSTAR>.3752E-3</BSTAR><MEAN_MOTION_DOT>.2643E-4</MEAN_MOTION_DOT><MEAN_MOTION_DDOT>0</MEAN_MOTION_DDOT></tleParameters></data></segment></body></omm>

</ndm>
